P 76-5                  
1 08860U 76047A   22259.43958584  .00000064  00000+0  13054-3 0  9997
2 08860  99.8889  54.3504 0041534 236.5733 183.7775 13.67738722309109